[{"OBJECT_NAME":"OPS 7218 (TRANSIT 16)","OBJECT_ID":"1967-048A","EPOCH":"2026-04-26T17:19:38.036064","MEAN_MOTION":13.50755566,"ECCENTRICITY":0.0022194,"INCLINATION":89.6762,"RA_OF_ASC_NODE":349.6064,"ARG_OF_PERICENTER":85.6022,"MEAN_ANOMALY":343.9359,"EPHEMERIS_TYPE":0,"CLASSIFICATION_TYPE":"U","NORAD_CAT_ID":2807,"ELEMENT_SET_NO":999,"REV_AT_EPOCH":90098,"BSTAR":0.00018667,"MEAN_MOTION_DOT":1.31e-6,"MEAN_MOTION_DDOT":0},{"OBJECT_NAME":"OPS 4947 (TRANSIT 17)","OBJECT_ID":"1967-092A","EPOCH":"2026-04-26T17:29:42.332352","MEAN_MOTION":13.53489344,"ECCENTRICITY":0.0046532,"INCLINATION":89.2586,"RA_OF_ASC_NODE":14.1971,"ARG_OF_PERICENTER":201.9051,"MEAN_ANOMALY":212.704,"EPHEMERIS_TYPE":0,"CLASSIFICATION_TYPE":"U","NORAD_CAT_ID":2965,"ELEMENT_SET_NO":999,"REV_AT_EPOCH":88923,"BSTAR":0.00011888,"MEAN_MOTION_DOT":9.2e-7,"MEAN_MOTION_DDOT":0},{"OBJECT_NAME":"OPS 7034 (TRANSIT 18)","OBJECT_ID":"1968-012A","EPOCH":"2026-04-26T19:51:49.974336","MEAN_MOTION":13.51599752,"ECCENTRICITY":0.0075276,"INCLINATION":90.0229,"RA_OF_ASC_NODE":273.9709,"ARG_OF_PERICENTER":138.2368,"MEAN_ANOMALY":348.7273,"EPHEMERIS_TYPE":0,"CLASSIFICATION_TYPE":"U","NORAD_CAT_ID":3133,"ELEMENT_SET_NO":999,"REV_AT_EPOCH":58743,"BSTAR":0.00018662,"MEAN_MOTION_DOT":1.34e-6,"MEAN_MOTION_DDOT":0},{"OBJECT_NAME":"NNSS 19 (TRANSIT 19)","OBJECT_ID":"1970-067A","EPOCH":"2026-04-26T19:58:19.223616","MEAN_MOTION":13.51350641,"ECCENTRICITY":0.0169885,"INCLINATION":90.0148,"RA_OF_ASC_NODE":234.6359,"ARG_OF_PERICENTER":261.274,"MEAN_ANOMALY":96.9138,"EPHEMERIS_TYPE":0,"CLASSIFICATION_TYPE":"U","NORAD_CAT_ID":4507,"ELEMENT_SET_NO":999,"REV_AT_EPOCH":74046,"BSTAR":0.00022485,"MEAN_MOTION_DOT":1.67e-6,"MEAN_MOTION_DDOT":0},{"OBJECT_NAME":"NNSS 20 (TRANSIT 20)","OBJECT_ID":"1973-081A","EPOCH":"2026-04-26T19:21:00.277344","MEAN_MOTION":13.71493077,"ECCENTRICITY":0.015538,"INCLINATION":89.8586,"RA_OF_ASC_NODE":252.9994,"ARG_OF_PERICENTER":33.9398,"MEAN_ANOMALY":327.1588,"EPHEMERIS_TYPE":0,"CLASSIFICATION_TYPE":"U","NORAD_CAT_ID":6909,"ELEMENT_SET_NO":999,"REV_AT_EPOCH":82212,"BSTAR":0.00014338,"MEAN_MOTION_DOT":1.51e-6,"MEAN_MOTION_DDOT":0},{"OBJECT_NAME":"TRANSAT","OBJECT_ID":"1977-106A","EPOCH":"2026-04-26T20:37:32.674944","MEAN_MOTION":13.48964852,"ECCENTRICITY":0.0026005,"INCLINATION":89.6458,"RA_OF_ASC_NODE":73.7435,"ARG_OF_PERICENTER":159.3591,"MEAN_ANOMALY":261.4835,"EPHEMERIS_TYPE":0,"CLASSIFICATION_TYPE":"U","NORAD_CAT_ID":10457,"ELEMENT_SET_NO":999,"REV_AT_EPOCH":38565,"BSTAR":0.00011675,"MEAN_MOTION_DOT":8.4e-7,"MEAN_MOTION_DDOT":0},{"OBJECT_NAME":"NOVA 1","OBJECT_ID":"1981-044A","EPOCH":"2026-04-26T20:28:20.877024","MEAN_MOTION":13.23293184,"ECCENTRICITY":0.0016277,"INCLINATION":89.8443,"RA_OF_ASC_NODE":89.3891,"ARG_OF_PERICENTER":91.2169,"MEAN_ANOMALY":331.5742,"EPHEMERIS_TYPE":0,"CLASSIFICATION_TYPE":"U","NORAD_CAT_ID":12458,"ELEMENT_SET_NO":999,"REV_AT_EPOCH":16973,"BSTAR":0.00012428,"MEAN_MOTION_DOT":6.2e-7,"MEAN_MOTION_DDOT":0},{"OBJECT_NAME":"NOVA 3","OBJECT_ID":"1984-110A","EPOCH":"2026-04-26T19:51:14.175360","MEAN_MOTION":13.23063916,"ECCENTRICITY":0.0030314,"INCLINATION":90.1171,"RA_OF_ASC_NODE":82.0479,"ARG_OF_PERICENTER":320.1149,"MEAN_ANOMALY":100.1583,"EPHEMERIS_TYPE":0,"CLASSIFICATION_TYPE":"U","NORAD_CAT_ID":15362,"ELEMENT_SET_NO":999,"REV_AT_EPOCH":484,"BSTAR":0.00010105,"MEAN_MOTION_DOT":5.1e-7,"MEAN_MOTION_DDOT":0},{"OBJECT_NAME":"OSCAR 30","OBJECT_ID":"1985-066A","EPOCH":"2026-04-26T17:09:19.152000","MEAN_MOTION":13.3610316,"ECCENTRICITY":0.0169684,"INCLINATION":90.1529,"RA_OF_ASC_NODE":101.9602,"ARG_OF_PERICENTER":63.1851,"MEAN_ANOMALY":108.6258,"EPHEMERIS_TYPE":0,"CLASSIFICATION_TYPE":"U","NORAD_CAT_ID":15935,"ELEMENT_SET_NO":999,"REV_AT_EPOCH":98255,"BSTAR":0.00018714,"MEAN_MOTION_DOT":1.14e-6,"MEAN_MOTION_DDOT":0},{"OBJECT_NAME":"OSCAR 24","OBJECT_ID":"1985-066B","EPOCH":"2026-04-26T20:10:49.441728","MEAN_MOTION":13.35960288,"ECCENTRICITY":0.0170847,"INCLINATION":90.1692,"RA_OF_ASC_NODE":94.6029,"ARG_OF_PERICENTER":69.2886,"MEAN_ANOMALY":354.5671,"EPHEMERIS_TYPE":0,"CLASSIFICATION_TYPE":"U","NORAD_CAT_ID":15936,"ELEMENT_SET_NO":999,"REV_AT_EPOCH":98447,"BSTAR":0.00016851,"MEAN_MOTION_DOT":1.04e-6,"MEAN_MOTION_DDOT":0},{"OBJECT_NAME":"POLAR BEAR","OBJECT_ID":"1986-088A","EPOCH":"2026-04-26T17:39:18.361152","MEAN_MOTION":13.75279743,"ECCENTRICITY":0.0041398,"INCLINATION":89.6229,"RA_OF_ASC_NODE":178.4299,"ARG_OF_PERICENTER":74.5311,"MEAN_ANOMALY":40.8418,"EPHEMERIS_TYPE":0,"CLASSIFICATION_TYPE":"U","NORAD_CAT_ID":17070,"ELEMENT_SET_NO":999,"REV_AT_EPOCH":97834,"BSTAR":8.5676e-5,"MEAN_MOTION_DOT":9.4e-7,"MEAN_MOTION_DDOT":0},{"OBJECT_NAME":"OSCAR 27","OBJECT_ID":"1987-080A","EPOCH":"2026-04-26T20:59:49.595712","MEAN_MOTION":13.44932419,"ECCENTRICITY":0.0103019,"INCLINATION":90.3685,"RA_OF_ASC_NODE":84.2464,"ARG_OF_PERICENTER":196.4611,"MEAN_ANOMALY":163.3184,"EPHEMERIS_TYPE":0,"CLASSIFICATION_TYPE":"U","NORAD_CAT_ID":18361,"ELEMENT_SET_NO":999,"REV_AT_EPOCH":89373,"BSTAR":0.0001601,"MEAN_MOTION_DOT":1.05e-6,"MEAN_MOTION_DDOT":0},{"OBJECT_NAME":"OSCAR 29","OBJECT_ID":"1987-080B","EPOCH":"2026-04-26T20:32:27.478176","MEAN_MOTION":13.44471467,"ECCENTRICITY":0.010389,"INCLINATION":90.3694,"RA_OF_ASC_NODE":84.7144,"ARG_OF_PERICENTER":220.1567,"MEAN_ANOMALY":196.6172,"EPHEMERIS_TYPE":0,"CLASSIFICATION_TYPE":"U","NORAD_CAT_ID":18362,"ELEMENT_SET_NO":999,"REV_AT_EPOCH":89325,"BSTAR":0.0001258,"MEAN_MOTION_DOT":8.3e-7,"MEAN_MOTION_DDOT":0},{"OBJECT_NAME":"OSCAR 23","OBJECT_ID":"1988-033A","EPOCH":"2026-04-26T18:59:01.670784","MEAN_MOTION":13.27809841,"ECCENTRICITY":0.0189653,"INCLINATION":90.3324,"RA_OF_ASC_NODE":20.649,"ARG_OF_PERICENTER":164.2691,"MEAN_ANOMALY":264.3015,"EPHEMERIS_TYPE":0,"CLASSIFICATION_TYPE":"U","NORAD_CAT_ID":19070,"ELEMENT_SET_NO":999,"REV_AT_EPOCH":84045,"BSTAR":0.00013395,"MEAN_MOTION_DOT":7.6e-7,"MEAN_MOTION_DDOT":0},{"OBJECT_NAME":"OSCAR 32","OBJECT_ID":"1988-033B","EPOCH":"2026-04-26T17:57:50.661792","MEAN_MOTION":13.27973764,"ECCENTRICITY":0.0188452,"INCLINATION":90.3329,"RA_OF_ASC_NODE":20.7864,"ARG_OF_PERICENTER":151.1614,"MEAN_ANOMALY":264.989,"EPHEMERIS_TYPE":0,"CLASSIFICATION_TYPE":"U","NORAD_CAT_ID":19071,"ELEMENT_SET_NO":999,"REV_AT_EPOCH":84057,"BSTAR":0.00011731,"MEAN_MOTION_DOT":6.8e-7,"MEAN_MOTION_DDOT":0},{"OBJECT_NAME":"NOVA 2","OBJECT_ID":"1988-052A","EPOCH":"2026-04-26T19:58:26.416416","MEAN_MOTION":13.22953074,"ECCENTRICITY":0.0030694,"INCLINATION":89.9834,"RA_OF_ASC_NODE":78.033,"ARG_OF_PERICENTER":5.0944,"MEAN_ANOMALY":10.6768,"EPHEMERIS_TYPE":0,"CLASSIFICATION_TYPE":"U","NORAD_CAT_ID":19223,"ELEMENT_SET_NO":999,"REV_AT_EPOCH":82734,"BSTAR":0.00012558,"MEAN_MOTION_DOT":6.2e-7,"MEAN_MOTION_DDOT":0},{"OBJECT_NAME":"OSCAR 25","OBJECT_ID":"1988-074A","EPOCH":"2026-04-26T18:49:22.609344","MEAN_MOTION":13.42650431,"ECCENTRICITY":0.0094581,"INCLINATION":90.0453,"RA_OF_ASC_NODE":20.7502,"ARG_OF_PERICENTER":220.2829,"MEAN_ANOMALY":203.9179,"EPHEMERIS_TYPE":0,"CLASSIFICATION_TYPE":"U","NORAD_CAT_ID":19419,"ELEMENT_SET_NO":999,"REV_AT_EPOCH":84452,"BSTAR":0.00011087,"MEAN_MOTION_DOT":7.3e-7,"MEAN_MOTION_DDOT":0}]
