OPS 7218 (TRANSIT 16)   
1 02807U 67048A   26116.72196801  .00000131  00000+0  18667-3 0  9997
2 02807  89.6762 349.6064 0022194  85.6022 343.9359 13.50755566900985
OPS 4947 (TRANSIT 17)   
1 02965U 67092A   26116.72896218  .00000092  00000+0  11888-3 0  9994
2 02965  89.2586  14.1971 0046532 201.9051 212.7040 13.53489344889233
OPS 7034 (TRANSIT 18)   
1 03133U 68012A   26116.82766174  .00000134  00000+0  18662-3 0  9997
2 03133  90.0229 273.9709 0075276 138.2368 348.7273 13.51599752587437
NNSS 19 (TRANSIT 19)    
1 04507U 70067A   26116.83216694  .00000167  00000+0  22485-3 0  9998
2 04507  90.0148 234.6359 0169885 261.2740  96.9138 13.51350641740467
NNSS 20 (TRANSIT 20)    
1 06909U 73081A   26116.80625321  .00000151  00000+0  14338-3 0  9994
2 06909  89.8586 252.9994 0155380  33.9398 327.1588 13.71493077822128
TRANSAT                 
1 10457U 77106A   26116.85940596  .00000084  00000+0  11675-3 0  9994
2 10457  89.6458  73.7435 0026005 159.3591 261.4835 13.48964852385650
NOVA 1                  
1 12458U 81044A   26116.85301941  .00000062  00000+0  12428-3 0  9991
2 12458  89.8443  89.3891 0016277  91.2169 331.5742 13.23293184169734
NOVA 3                  
1 15362U 84110A   26116.82724740  .00000051  00000+0  10105-3 0  9996
2 15362  90.1171  82.0479 0030314 320.1149 100.1583 13.23063916  4847
OSCAR 30                
1 15935U 85066A   26116.71480500  .00000114  00000+0  18714-3 0  9998
2 15935  90.1529 101.9602 0169684  63.1851 108.6258 13.36103160982551
OSCAR 24                
1 15936U 85066B   26116.84085002  .00000104  00000+0  16851-3 0  9990
2 15936  90.1692  94.6029 0170847  69.2886 354.5671 13.35960288984477
POLAR BEAR              
1 17070U 86088A   26116.73562918  .00000094  00000+0  85676-4 0  9990
2 17070  89.6229 178.4299 0041398  74.5311  40.8418 13.75279743978343
OSCAR 27                
1 18361U 87080A   26116.87487958  .00000105  00000+0  16010-3 0  9990
2 18361  90.3685  84.2464 0103019 196.4611 163.3184 13.44932419893738
OSCAR 29                
1 18362U 87080B   26116.85587359  .00000083  00000+0  12580-3 0  9998
2 18362  90.3694  84.7144 0103890 220.1567 196.6172 13.44471467893255
OSCAR 23                
1 19070U 88033A   26116.79099156  .00000076  00000+0  13395-3 0  9997
2 19070  90.3324  20.6490 0189653 164.2691 264.3015 13.27809841840457
OSCAR 32                
1 19071U 88033B   26116.74850303  .00000068  00000+0  11731-3 0  9995
2 19071  90.3329  20.7864 0188452 151.1614 264.9890 13.27973764840571
NOVA 2                  
1 19223U 88052A   26116.83225019  .00000062  00000+0  12558-3 0  9997
2 19223  89.9834  78.0330 0030694   5.0944  10.6768 13.22953074827343
OSCAR 25                
1 19419U 88074A   26116.78428946  .00000073  00000+0  11087-3 0  9994
2 19419  90.0453  20.7502 0094581 220.2829 203.9179 13.42650431844528
